OBJECT_NAME,OBJECT_ID,EPOCH,MEAN_MOTION,ECCENTRICITY,INCLINATION,RA_OF_ASC_NODE,ARG_OF_PERICENTER,MEAN_ANOMALY,EPHEMERIS_TYPE,CLASSIFICATION_TYPE,NORAD_CAT_ID,ELEMENT_SET_NO,REV_AT_EPOCH,BSTAR,MEAN_MOTION_DOT,MEAN_MOTION_DDOT
STARLINK-34254,2025-111P,2026-07-12T19:37:03.137088,15.27603443,.00005853,42.9991,90.9083,229.5221,130.5580,0,U,64136,999,6460,.42543829E-3,.11472E-3,0
STARLINK-34230,2025-111Q,2026-07-13T12:58:24.881664,16.05985059,.00247793,42.9775,34.0603,283.0841,76.7274,0,U,64137,999,6531,.71460116E-3,.565911E-2,.1611001E-3
STARLINK-34129,2025-111R,2026-07-12T03:18:41.671584,15.27586016,.00015635,43.0011,95.2671,279.4774,80.5901,0,U,64138,999,6454,.22322282E-3,.5886E-4,0
STARLINK-34212,2025-111S,2026-07-13T02:08:27.498624,15.27597021,.00040317,43.0135,89.4990,255.4159,104.6246,0,U,64139,999,6464,.4254778E-3,.11471E-3,0
STARLINK-34149,2025-111T,2026-07-12T02:50:56.472288,15.27575819,.00012821,43.0050,95.1181,271.4014,88.6690,0,U,64140,999,6449,.21276119E-3,.5596E-4,0
STARLINK-34054,2025-111U,2026-07-12T23:11:16.196352,15.27588930,.00011666,43.0041,90.3002,282.2497,77.8224,0,U,64141,999,6462,.48910899E-3,.13225E-3,0
STARLINK-34195,2025-111V,2026-07-12T18:12:09.946080,15.27608375,.00011681,43.0014,91.3228,264.5973,95.4745,0,U,64142,999,6459,.59131863E-3,.16059E-3,0
STARLINK-34133,2025-111W,2026-07-13T01:57:22.513248,15.27598963,.00006044,43.0018,89.4462,303.7611,56.3183,0,U,64143,999,6464,.49761357E-3,.13464E-3,0
STARLINK-34181,2025-111X,2026-07-12T02:56:29.293728,15.27592493,.00013444,43.0022,95.1500,261.8940,98.1759,0,U,64144,999,6449,.27534202E-3,.7325E-4,0
STARLINK-34186,2025-111Y,2026-07-12T21:59:19.228128,15.27593880,.0000296,43.0014,90.7848,330.7919,29.2916,0,U,64145,999,6461,.56093407E-3,.15212E-3,0
STARLINK-34314,2025-112A,2026-07-13T16:10:26.585184,15.05661067,.0001555,97.2851,243.6609,103.3016,256.8385,0,U,64146,999,6226,.16194E-3,.2282E-4,0
STARLINK-33926,2025-112B,2026-07-13T17:10:16.002336,15.05658468,.00023,97.2825,243.7612,116.5444,243.6020,0,U,64147,999,6227,.42575E-4,.558E-5,0
STARLINK-34213,2025-112C,2026-07-13T16:22:24.152736,15.05660991,.0001212,97.2846,243.6521,121.2274,238.9073,0,U,64148,999,6226,.20982E-3,.2973E-4,0
STARLINK-33924,2025-112D,2026-07-13T16:34:21.696960,15.05653875,.0001338,97.2815,243.6421,128.5073,231.6275,0,U,64149,999,6226,.96735E-4,.134E-4,0
STARLINK-34209,2025-112E,2026-07-13T16:58:18.452064,15.05659005,.0002862,97.2823,243.7693,108.2514,251.9025,0,U,64150,999,6227,.14044E-3,.1971E-4,0
STARLINK-34338,2025-112F,2026-07-13T16:46:20.739360,15.05660737,.0002062,97.2834,243.7803,99.0254,261.1207,0,U,64151,999,6227,.17174E-3,.2423E-4,0
STARLINK-34348,2025-112G,2026-07-13T17:34:11.260992,15.05658442,.0001675,97.2846,243.7378,104.8207,255.3206,0,U,64152,999,6227,.25531E-3,.363E-4,0
STARLINK-34345,2025-112H,2026-07-13T17:22:13.601856,15.05658632,.0001625,97.2820,243.7510,99.4675,260.6736,0,U,64153,999,6227,.13875E-3,.1947E-4,0
STARLINK-33945,2025-112J,2026-07-13T17:11:06.099648,15.05661420,.0001013,97.2837,252.2406,173.8992,186.2249,0,U,64154,999,6282,.18984E-3,.2685E-4,0
STARLINK-34346,2025-112K,2026-07-13T17:02:17.367936,15.05649235,.0001912,97.2805,243.7755,93.0474,267.0972,0,U,64155,999,6227,-.93291E-4,-.1402E-4,0
STARLINK-34277,2025-112L,2026-07-13T16:14:26.023776,15.05659509,.0001911,97.2854,243.6664,109.2684,250.8750,0,U,64156,999,6226,.16331E-3,.2301E-4,0
STARLINK-34166,2025-112N,2026-07-13T16:38:19.914720,15.05652306,.000184,97.2823,243.6424,96.4272,263.7165,0,U,64158,999,6226,-.70002E-3,-.10143E-3,0
STARLINK-34344,2025-112P,2026-07-13T16:26:23.376192,15.05661679,.0001687,97.2842,243.6535,123.3945,236.7444,0,U,64159,999,6226,.17215E-3,.2429E-4,0
STARLINK-34339,2025-112Q,2026-07-13T16:02:28.375008,15.05659999,.0002055,97.2834,243.6793,107.8554,252.2898,0,U,64160,999,6226,.16296E-3,.2296E-4,0
STARLINK-34341,2025-112R,2026-07-13T17:14:14.918208,15.05660916,.0002427,97.2818,243.7673,153.8032,206.3318,0,U,64161,999,6227,.18766E-3,.2653E-4,0
STARLINK-34317,2025-112S,2026-07-13T15:14:37.356576,15.05661845,.0001611,97.2823,243.7225,168.4241,191.7024,0,U,64162,999,6226,.73869E-4,.101E-4,0
STARLINK-34340,2025-112T,2026-07-13T16:18:24.937920,15.05661844,.0001519,97.2848,243.6625,141.8687,218.2649,0,U,64163,999,6226,.20513E-3,.2905E-4,0
STARLINK-34263,2025-112U,2026-07-13T20:53:33.789408,15.05657915,.0002346,97.2848,243.8638,101.8978,258.2512,0,U,64164,999,6229,.1431E-3,.2009E-4,0
STARLINK-33793,2025-112V,2026-07-13T15:54:30.501792,15.05666915,.0002343,97.2852,243.6848,159.1175,201.0149,0,U,64165,999,6226,.26196E-3,.3727E-4,0
STARLINK-34313,2025-112W,2026-07-13T17:18:14.400000,15.05658420,.0001772,97.2838,243.7632,113.8606,246.2807,0,U,64166,999,6227,.94575E-4,.1309E-4,0
