STARLINK-34254          
1 64136U 25111P   26193.81739742  .00011472  00000+0  42544-3 0  9998
2 64136  42.9991  90.9083 0000585 229.5221 130.5580 15.27603443 64609
STARLINK-34230          
1 64137U 25111Q   26194.54056576  .00565911  16110-3  71460-3 0  9991
2 64137  42.9775  34.0603 0024779 283.0841  76.7274 16.05985059 65314
STARLINK-34129          
1 64138U 25111R   26193.13798231  .00005886  00000+0  22322-3 0  9997
2 64138  43.0011  95.2671 0001563 279.4774  80.5901 15.27586016 64541
STARLINK-34212          
1 64139U 25111S   26194.08920716  .00011471  00000+0  42548-3 0  9997
2 64139  43.0135  89.4990 0004031 255.4159 104.6246 15.27597021 64641
STARLINK-34149          
1 64140U 25111T   26193.11870917  .00005596  00000+0  21276-3 0  9995
2 64140  43.0050  95.1181 0001282 271.4014  88.6690 15.27575819 64496
STARLINK-34054          
1 64141U 25111U   26193.96615968  .00013225  00000+0  48911-3 0  9995
2 64141  43.0041  90.3002 0001166 282.2497  77.8224 15.27588930 64628
STARLINK-34195          
1 64142U 25111V   26193.75844845  .00016059  00000+0  59132-3 0  9996
2 64142  43.0014  91.3228 0001168 264.5973  95.4745 15.27608375 64590
STARLINK-34133          
1 64143U 25111W   26194.08151057  .00013464  00000+0  49761-3 0  9994
2 64143  43.0018  89.4462 0000604 303.7611  56.3183 15.27598963 64641
STARLINK-34181          
1 64144U 25111X   26193.12256127  .00007325  00000+0  27534-3 0  9996
2 64144  43.0022  95.1500 0001344 261.8940  98.1759 15.27592493 64493
STARLINK-34186          
1 64145U 25111Y   26193.91619477  .00015212  00000+0  56093-3 0  9991
2 64145  43.0014  90.7848 0000296 330.7919  29.2916 15.27593880 64613
STARLINK-34314          
1 64146U 25112A   26194.67391881  .00002282  00000+0  16194-3 0  9994
2 64146  97.2851 243.6609 0001555 103.3016 256.8385 15.05661067 62265
STARLINK-33926          
1 64147U 25112B   26194.71546299  .00000558  00000+0  42575-4 0  9992
2 64147  97.2825 243.7612 0002300 116.5444 243.6020 15.05658468 62274
STARLINK-34213          
1 64148U 25112C   26194.68222399  .00002973  00000+0  20982-3 0  9991
2 64148  97.2846 243.6521 0001212 121.2274 238.9073 15.05660991 62269
STARLINK-33924          
1 64149U 25112D   26194.69052890  .00001340  00000+0  96735-4 0  9997
2 64149  97.2815 243.6421 0001338 128.5073 231.6275 15.05653875 62268
STARLINK-34209          
1 64150U 25112E   26194.70715801  .00001971  00000+0  14044-3 0  9991
2 64150  97.2823 243.7693 0002862 108.2514 251.9025 15.05659005 62279
STARLINK-34338          
1 64151U 25112F   26194.69885115  .00002423  00000+0  17174-3 0  9996
2 64151  97.2834 243.7803 0002062  99.0254 261.1207 15.05660737 62274
STARLINK-34348          
1 64152U 25112G   26194.73207478  .00003630  00000+0  25531-3 0  9999
2 64152  97.2846 243.7378 0001675 104.8207 255.3206 15.05658442 62271
STARLINK-34345          
1 64153U 25112H   26194.72376854  .00001947  00000+0  13875-3 0  9991
2 64153  97.2820 243.7510 0001625  99.4675 260.6736 15.05658632 62273
STARLINK-33945          
1 64154U 25112J   26194.71604282  .00002685  00000+0  18984-3 0  9996
2 64154  97.2837 252.2406 0001013 173.8992 186.2249 15.05661420 62823
STARLINK-34346          
1 64155U 25112K   26194.70992324 -.00001402  00000+0 -93291-4 0  9996
2 64155  97.2805 243.7755 0001912  93.0474 267.0972 15.05649235 62277
STARLINK-34277          
1 64156U 25112L   26194.67669009  .00002301  00000+0  16331-3 0  9990
2 64156  97.2854 243.6664 0001911 109.2684 250.8750 15.05659509 62260
STARLINK-34166          
1 64158U 25112N   26194.69328605 -.00010143  00000+0 -70002-3 0  9998
2 64158  97.2823 243.6424 0001840  96.4272 263.7165 15.05652306 62264
STARLINK-34344          
1 64159U 25112P   26194.68499278  .00002429  00000+0  17215-3 0  9996
2 64159  97.2842 243.6535 0001687 123.3945 236.7444 15.05661679 62268
STARLINK-34339          
1 64160U 25112Q   26194.66838397  .00002296  00000+0  16296-3 0  9995
2 64160  97.2834 243.6793 0002055 107.8554 252.2898 15.05659999 62268
STARLINK-34341          
1 64161U 25112R   26194.71822822  .00002653  00000+0  18766-3 0  9999
2 64161  97.2818 243.7673 0002427 153.8032 206.3318 15.05660916 62273
STARLINK-34317          
1 64162U 25112S   26194.63515459  .00001010  00000+0  73869-4 0  9998
2 64162  97.2823 243.7225 0001611 168.4241 191.7024 15.05661845 62263
STARLINK-34340          
1 64163U 25112T   26194.67945530  .00002905  00000+0  20513-3 0  9991
2 64163  97.2848 243.6625 0001519 141.8687 218.2649 15.05661844 62267
STARLINK-34263          
1 64164U 25112U   26194.87052997  .00002009  00000+0  14310-3 0  9993
2 64164  97.2848 243.8638 0002346 101.8978 258.2512 15.05657915 62292
STARLINK-33793          
1 64165U 25112V   26194.66285303  .00003727  00000+0  26196-3 0  9993
2 64165  97.2852 243.6848 0002343 159.1175 201.0149 15.05666915 62260
STARLINK-34313          
1 64166U 25112W   26194.72100000  .00001309  00000+0  94575-4 0  9992
2 64166  97.2838 243.7632 0001772 113.8606 246.2807 15.05658420 62273
